start=new Date('2022-01-08T00:00:00.000Z').valueOf();
sats=[{"RCS_SIZE":"LARGE","REV_AT_EPOCH":"8894","RA_OF_ASC_NODE":"58.3693","MEAN_ANOMALY":"284.9939","ELEMENT_SET_NO":"999","SEMIMAJOR_AXIS":"6925.343","BSTAR":"0.00027420000000","NORAD_CAT_ID":"45663","MEAN_MOTION_DDOT":"0.0000000000000","TIME_SYSTEM":"UTC","CLASSIFICATION_TYPE":"U","APOAPSIS":"548.287","EPOCH":"2022-01-07T20:40:51.714624","LAUNCH_DATE":"2020-06-04","PERIOD":"95.592","CENTER_NAME":"EARTH","ECCENTRICITY":"0.00015590","COUNTRY_CODE":"US","REF_FRAME":"TEME","OBJECT_NAME":"STARLINK-1446","ARG_OF_PERICENTER":"75.1222","OBJECT_TYPE":"PAYLOAD","DECAY_DATE":null,"MEAN_MOTION_DOT":"0.00003805","PERIAPSIS":"546.128","TLE_LINE2":"2 45663  53.0537  58.3693 0001559  75.1222 284.9939 15.06401867 88943","INCLINATION":"53.0537","TLE_LINE1":"1 45663U 20035G   22007.86170966  .00003805  00000-0  27420-3 0  9992","FILE":"3266684","GP_ID":"193400890","MEAN_ELEMENT_THEORY":"SGP4","MEAN_MOTION":"15.06401867","EPHEMERIS_TYPE":"0","SITE":"AFETR","OBJECT_ID":"2020-035G"},{"CENTER_NAME":"EARTH","LAUNCH_DATE":"2020-06-04","PERIOD":"95.593","EPOCH":"2022-01-07T19:53:05.593344","CLASSIFICATION_TYPE":"U","APOAPSIS":"548.068","OBJECT_NAME":"STARLINK-1448","COUNTRY_CODE":"US","REF_FRAME":"TEME","ECCENTRICITY":"0.00012040","ELEMENT_SET_NO":"999","REV_AT_EPOCH":"8894","MEAN_ANOMALY":"284.6253","RA_OF_ASC_NODE":"58.5139","RCS_SIZE":"LARGE","TIME_SYSTEM":"UTC","MEAN_MOTION_DDOT":"0.0000000000000","SEMIMAJOR_AXIS":"6925.369","BSTAR":"0.00000272170000","NORAD_CAT_ID":"45665","FILE":"3266684","GP_ID":"193400892","TLE_LINE1":"1 45665U 20035J   22007.82853696 -.00000241  00000-0  27217-5 0  9996","INCLINATION":"53.0547","SITE":"AFETR","OBJECT_ID":"2020-035J","EPHEMERIS_TYPE":"0","MEAN_MOTION":"15.06393297","MEAN_ELEMENT_THEORY":"SGP4","OBJECT_TYPE":"PAYLOAD","DECAY_DATE":null,"ARG_OF_PERICENTER":"75.4870","MEAN_MOTION_DOT":"-0.00000241","PERIAPSIS":"546.400","TLE_LINE2":"2 45665  53.0547  58.5139 0001204  75.4870 284.6253 15.06393297 88945"},{"TLE_LINE1":"1 45666U 20035K   22007.83496577 -.00000536  00000-0 -17129-4 0  9997","FILE":"3266804","GP_ID":"193423293","INCLINATION":"53.0557","EPHEMERIS_TYPE":"0","SITE":"AFETR","OBJECT_ID":"2020-035K","MEAN_ELEMENT_THEORY":"SGP4","MEAN_MOTION":"15.06386546","OBJECT_TYPE":"PAYLOAD","DECAY_DATE":null,"ARG_OF_PERICENTER":"73.4985","MEAN_MOTION_DOT":"-0.00000536","PERIAPSIS":"546.359","TLE_LINE2":"2 45666  53.0557  58.4947 0001294  73.4985 286.6146 15.06386546 89344","LAUNCH_DATE":"2020-06-04","PERIOD":"95.593","CENTER_NAME":"EARTH","APOAPSIS":"548.151","CLASSIFICATION_TYPE":"U","EPOCH":"2022-01-07T20:02:21.042528","OBJECT_NAME":"STARLINK-1449","COUNTRY_CODE":"US","ECCENTRICITY":"0.00012940","REF_FRAME":"TEME","ELEMENT_SET_NO":"999","RCS_SIZE":"LARGE","REV_AT_EPOCH":"8934","RA_OF_ASC_NODE":"58.4947","MEAN_ANOMALY":"286.6146","SEMIMAJOR_AXIS":"6925.390","BSTAR":"-0.00001712900000","NORAD_CAT_ID":"45666","MEAN_MOTION_DDOT":"0.0000000000000","TIME_SYSTEM":"UTC"},{"ARG_OF_PERICENTER":"71.9198","DECAY_DATE":null,"OBJECT_TYPE":"PAYLOAD","PERIAPSIS":"546.327","TLE_LINE2":"2 45667  53.0547  59.6911 0001325  71.9198 288.1935 15.06389877 89301","MEAN_MOTION_DOT":"0.00000228","INCLINATION":"53.0547","TLE_LINE1":"1 45667U 20035L   22007.56683067  .00000228  00000-0  34208-4 0  9993","GP_ID":"193423542","FILE":"3266804","MEAN_ELEMENT_THEORY":"SGP4","MEAN_MOTION":"15.06389877","EPHEMERIS_TYPE":"0","OBJECT_ID":"2020-035L","SITE":"AFETR","RCS_SIZE":"LARGE","RA_OF_ASC_NODE":"59.6911","MEAN_ANOMALY":"288.1935","REV_AT_EPOCH":"8930","ELEMENT_SET_NO":"999","NORAD_CAT_ID":"45667","SEMIMAJOR_AXIS":"6925.380","BSTAR":"0.00003420800000","TIME_SYSTEM":"UTC","MEAN_MOTION_DDOT":"0.0000000000000","APOAPSIS":"548.162","CLASSIFICATION_TYPE":"U","EPOCH":"2022-01-07T13:36:14.169888","LAUNCH_DATE":"2020-06-04","PERIOD":"95.593","CENTER_NAME":"EARTH","COUNTRY_CODE":"US","ECCENTRICITY":"0.00013250","REF_FRAME":"TEME","OBJECT_NAME":"STARLINK-1450"},{"OBJECT_NAME":"STARLINK-1451","REF_FRAME":"TEME","COUNTRY_CODE":"US","ECCENTRICITY":"0.00013170","PERIOD":"95.592","LAUNCH_DATE":"2020-06-04","CENTER_NAME":"EARTH","CLASSIFICATION_TYPE":"U","APOAPSIS":"548.117","EPOCH":"2022-01-07T11:16:51.999456","NORAD_CAT_ID":"45668","SEMIMAJOR_AXIS":"6925.340","BSTAR":"0.00013088000000","MEAN_MOTION_DDOT":"0.0000000000000","TIME_SYSTEM":"UTC","ELEMENT_SET_NO":"999","RCS_SIZE":"LARGE","MEAN_ANOMALY":"290.7546","RA_OF_ASC_NODE":"60.0947","REV_AT_EPOCH":"8930","EPHEMERIS_TYPE":"0","OBJECT_ID":"2020-035M","SITE":"AFETR","MEAN_ELEMENT_THEORY":"SGP4","MEAN_MOTION":"15.06402808","TLE_LINE1":"1 45668U 20035M   22007.47004629  .00001669  00000-0  13088-3 0  9997","GP_ID":"193391547","FILE":"3266507","INCLINATION":"53.0585","PERIAPSIS":"546.293","TLE_LINE2":"2 45668  53.0585  60.0947 0001317  69.3584 290.7546 15.06402808 89307","MEAN_MOTION_DOT":"0.00001669","DECAY_DATE":null,"OBJECT_TYPE":"PAYLOAD","ARG_OF_PERICENTER":"69.3584"},{"DECAY_DATE":null,"OBJECT_TYPE":"PAYLOAD","ARG_OF_PERICENTER":"62.4643","TLE_LINE2":"2 45669  53.0552  58.4190 0001350  62.4643 297.6483 15.06389145 89359","PERIAPSIS":"546.312","MEAN_MOTION_DOT":"-0.00000157","TLE_LINE1":"1 45669U 20035N   22007.85065367 -.00000157  00000-0  83613-5 0  9991","GP_ID":"193422544","FILE":"3266804","INCLINATION":"53.0552","EPHEMERIS_TYPE":"0","OBJECT_ID":"2020-035N","SITE":"AFETR","MEAN_ELEMENT_THEORY":"SGP4","MEAN_MOTION":"15.06389145","ELEMENT_SET_NO":"999","RCS_SIZE":"LARGE","RA_OF_ASC_NODE":"58.4190","MEAN_ANOMALY":"297.6483","REV_AT_EPOCH":"8935","NORAD_CAT_ID":"45669","SEMIMAJOR_AXIS":"6925.382","BSTAR":"0.00000836130000","MEAN_MOTION_DDOT":"0.0000000000000","TIME_SYSTEM":"UTC","LAUNCH_DATE":"2020-06-04","PERIOD":"95.593","CENTER_NAME":"EARTH","CLASSIFICATION_TYPE":"U","APOAPSIS":"548.182","EPOCH":"2022-01-07T20:24:56.477088","OBJECT_NAME":"STARLINK-1452","REF_FRAME":"TEME","COUNTRY_CODE":"US","ECCENTRICITY":"0.00013500"},{"DECAY_DATE":null,"OBJECT_TYPE":"PAYLOAD","ARG_OF_PERICENTER":"73.3469","PERIAPSIS":"546.327","TLE_LINE2":"2 45670  53.0566  28.7510 0001327  73.3469 286.7666 15.06389459 89656","MEAN_MOTION_DOT":"-0.00000708","TLE_LINE1":"1 45670U 20035P   22007.77601470 -.00000708  00000-0 -28673-4 0  9992","GP_ID":"193422794","FILE":"3266804","INCLINATION":"53.0566","EPHEMERIS_TYPE":"0","OBJECT_ID":"2020-035P","SITE":"AFETR","MEAN_ELEMENT_THEORY":"SGP4","MEAN_MOTION":"15.06389459","ELEMENT_SET_NO":"999","RCS_SIZE":"LARGE","MEAN_ANOMALY":"286.7666","RA_OF_ASC_NODE":"28.7510","REV_AT_EPOCH":"8965","NORAD_CAT_ID":"45670","SEMIMAJOR_AXIS":"6925.381","BSTAR":"-0.00002867300000","MEAN_MOTION_DDOT":"0.0000000000000","TIME_SYSTEM":"UTC","LAUNCH_DATE":"2020-06-04","PERIOD":"95.593","CENTER_NAME":"EARTH","CLASSIFICATION_TYPE":"U","APOAPSIS":"548.165","EPOCH":"2022-01-07T18:37:27.670080","OBJECT_NAME":"STARLINK-1453","COUNTRY_CODE":"US","ECCENTRICITY":"0.00013270","REF_FRAME":"TEME"},{"TIME_SYSTEM":"UTC","MEAN_MOTION_DDOT":"0.0000000000000","SEMIMAJOR_AXIS":"6925.348","BSTAR":"0.00002345800000","NORAD_CAT_ID":"45671","ELEMENT_SET_NO":"999","REV_AT_EPOCH":"8931","RA_OF_ASC_NODE":"59.2954","MEAN_ANOMALY":"273.0702","RCS_SIZE":"LARGE","OBJECT_NAME":"STARLINK-1454","COUNTRY_CODE":"US","ECCENTRICITY":"0.00012740","REF_FRAME":"TEME","CENTER_NAME":"EARTH","PERIOD":"95.592","LAUNCH_DATE":"2020-06-04","EPOCH":"2022-01-07T15:43:37.850880","CLASSIFICATION_TYPE":"U","APOAPSIS":"548.095","MEAN_MOTION_DOT":"0.00000068","TLE_LINE2":"2 45671  53.0550  59.2954 0001274  87.0433 273.0702 15.06400255 89316","PERIAPSIS":"546.330","OBJECT_TYPE":"PAYLOAD","DECAY_DATE":null,"ARG_OF_PERICENTER":"87.0433","SITE":"AFETR","OBJECT_ID":"2020-035Q","EPHEMERIS_TYPE":"0","MEAN_MOTION":"15.06400255","MEAN_ELEMENT_THEORY":"SGP4","FILE":"3266804","GP_ID":"193424042","TLE_LINE1":"1 45671U 20035Q   22007.65529920  .00000068  00000-0  23458-4 0  9992","INCLINATION":"53.0550"},{"OBJECT_NAME":"STARLINK-1455","REF_FRAME":"TEME","COUNTRY_CODE":"US","ECCENTRICITY":"0.00015680","CENTER_NAME":"EARTH","PERIOD":"95.593","LAUNCH_DATE":"2020-06-04","EPOCH":"2022-01-07T08:00:31.556448","APOAPSIS":"548.317","CLASSIFICATION_TYPE":"U","MEAN_MOTION_DDOT":"0.0000000000000","TIME_SYSTEM":"UTC","SEMIMAJOR_AXIS":"6925.367","BSTAR":"-0.00002179200000","NORAD_CAT_ID":"45672","ELEMENT_SET_NO":"999","REV_AT_EPOCH":"8969","MEAN_ANOMALY":"296.0388","RA_OF_ASC_NODE":"30.7506","RCS_SIZE":"LARGE","SITE":"AFETR","OBJECT_ID":"2020-035R","EPHEMERIS_TYPE":"0","MEAN_MOTION":"15.06394144","MEAN_ELEMENT_THEORY":"SGP4","FILE":"3266507","GP_ID":"193391048","TLE_LINE1":"1 45672U 20035R   22007.33369857 -.00000606  00000-0 -21792-4 0  9998","INCLINATION":"53.0555","MEAN_MOTION_DOT":"-0.00000606","TLE_LINE2":"2 45672  53.0555  30.7506 0001568  64.0763 296.0388 15.06394144 89691","PERIAPSIS":"546.146","OBJECT_TYPE":"PAYLOAD","DECAY_DATE":null,"ARG_OF_PERICENTER":"64.0763"},{"TLE_LINE2":"2 45673  53.0542  58.3390 0001599  67.4304 292.6854 15.06388235 89365","PERIAPSIS":"546.142","MEAN_MOTION_DOT":"-0.00000928","DECAY_DATE":null,"OBJECT_TYPE":"PAYLOAD","ARG_OF_PERICENTER":"67.4304","OBJECT_ID":"2020-035S","SITE":"AFETR","EPHEMERIS_TYPE":"0","MEAN_MOTION":"15.06388235","MEAN_ELEMENT_THEORY":"SGP4","GP_ID":"193423044","FILE":"3266804","TLE_LINE1":"1 45673U 20035S   22007.86908283 -.00000928  00000-0 -43423-4 0  9991","INCLINATION":"53.0542","MEAN_MOTION_DDOT":"0.0000000000000","TIME_SYSTEM":"UTC","NORAD_CAT_ID":"45673","SEMIMAJOR_AXIS":"6925.385","BSTAR":"-0.00004342300000","ELEMENT_SET_NO":"999","RA_OF_ASC_NODE":"58.3390","MEAN_ANOMALY":"292.6854","REV_AT_EPOCH":"8936","RCS_SIZE":"LARGE","OBJECT_NAME":"STARLINK-1456","COUNTRY_CODE":"US","REF_FRAME":"TEME","ECCENTRICITY":"0.00015990","CENTER_NAME":"EARTH","LAUNCH_DATE":"2020-06-04","PERIOD":"95.593","EPOCH":"2022-01-07T20:51:28.756512","CLASSIFICATION_TYPE":"U","APOAPSIS":"548.357"}];
